1 45541U 20025L   23305.54937677  .00002072  00000-0  15801-3 0  9998
2 45541  53.0546   3.4529 0001535  82.4927 277.6236 15.06391958195592
1 45541U 20025L   23305.88110813  .00004733  00000-0  33638-3 0  9994
2 45541  53.0550   1.9636 0001560  83.4754 276.6413 15.06402226195649
1 45541U 20025L   23305.88110813  .00004733  00000-0  33638-3 0  9994
2 45541  53.0550   1.9636 0001560  83.4754 276.6413 15.06402226195065
1 45541U 20025L   23306.41187541  .00008051  00000-0  55850-3 0  9993
2 45541  53.0541 359.5814 0001436  83.7208 276.3944 15.06416843195149
1 45541U 20025L   23306.54456643  .00009615  00000-0  66310-3 0  9999
2 45541  53.0543 358.9857 0001494  83.6530 276.4629 15.06422296195748
1 45541U 20025L   23306.87630490  .00001447  00000-0  11603-3 0  9999
2 45541  53.0552 357.4972 0001496  83.8898 276.2261 15.06403626195792
1 45541U 20025L   23306.87630490  .00001447  00000-0  11603-3 0  9999
2 45541  53.0552 357.4972 0001496  83.8898 276.2261 15.06403626195219
1 45541U 20025L   23307.53977194  .00001024  00000-0  87617-4 0  9998
2 45541  53.0547 354.5159 0001570  98.1903 261.9264 15.06402463195893
1 45541U 20025L   23307.87150494  .00003748  00000-0  27031-3 0  9999
2 45541  53.0556 353.0264 0001627  99.8881 260.2291 15.06406050195944
1 45541U 20025L   23308.40227222  .00011798  00000-0  80912-3 0  9994
2 45541  53.0554 350.6432 0001577 100.8889 259.2277 15.06422646196028
1 45541U 20025L   23308.40227222  .00011798  00000-0  80912-3 0  9994
2 45541  53.0554 350.6432 0001577 100.8889 259.2277 15.06422646195443
1 45541U 20025L   23309.13209107  .00005462  00000-0  38518-3 0  9993
2 45541  53.0549 347.3678 0001703  88.1051 272.0133 15.06409959195550
1 45541U 20025L   23309.39748024  .00004308  00000-0  30799-3 0  9998
2 45541  53.0550 346.1765 0001525  78.5384 281.5777 15.06396432196179
1 45541U 20025L   23309.39748024  .00004308  00000-0  30799-3 0  9998
2 45541  53.0550 346.1765 0001525  78.5384 281.5777 15.06396432195594
1 45541U 20025L   23309.79556329  .00014877  00000-0  10155-2 0  9992
2 45541  53.0550 344.3892 0001555  76.7144 283.4018 15.06401432196230
1 45541U 20025L   23310.12728693  .00039968  00000-0  26832-2 0  9993
2 45541  53.0540 342.8950 0001536  59.2156 300.8983 15.06451984195708
1 45541U 20025L   23310.39268249 -.00003914  00000-0 -24411-3 0  9994
2 45541  53.0553 341.7065 0001159  60.1277 299.9827 15.06388928195749
1 45541U 20025L   23310.52537981 -.00006920  00000-0 -44636-3 0  9992
2 45541  53.0556 341.1122 0001185  69.3970 290.7146 15.06380596196343
1 45541U 20025L   23310.79077292 -.00010521  00000-0 -68899-3 0  9994
2 45541  53.0548 339.9201 0001180  66.6732 293.4381 15.06370413196380
1 45541U 20025L   23310.79077292 -.00010521  00000-0 -68899-3 0  9994
2 45541  53.0548 339.9201 0001180  66.6732 293.4381 15.06370413195806
1 45541U 20025L   23311.45425800  .00023329  00000-0  15804-2 0  9995
2 45541  53.0536 336.9384 0001451  99.2946 260.8207 15.06387172195908
1 45541U 20025L   23311.52061185  .00020438  00000-0  13878-2 0  9992
2 45541  53.0539 336.6449 0002446  79.4861 280.6403 15.06377695196493
1 45541U 20025L   23311.52061185  .00020438  00000-0  13878-2 0  9992
2 45541  53.0539 336.6449 0002446  79.4861 280.6403 15.06377695195919
1 45541U 20025L   23312.05138116  .00016375  00000-0  11154-2 0  9990
2 45541  53.0548 334.2608 0001510 103.0543 257.0615 15.06407525195999
1 45541U 20025L   23312.38310962  .00022149  00000-0  15001-2 0  9998
2 45541  53.0544 332.7729 0001537 101.1573 258.9588 15.06426524196623
1 45541U 20025L   23312.78119112  .00008810  00000-0  60943-3 0  9991
2 45541  53.0544 330.9851 0001546 105.2916 254.8244 15.06408868196686
1 45541U 20025L   23312.78119112  .00008810  00000-0  60943-3 0  9991
2 45541  53.0544 330.9851 0001546 105.2916 254.8244 15.06408868196103
1 45541U 20025L   23313.04658246 -.00002243  00000-0 -13173-3 0  9996
2 45541  53.0559 329.7975 0001970  94.3329 265.7885 15.06394461196148
1 45541U 20025L   23313.44466610  .00023534  00000-0  15937-2 0  9995
2 45541  53.0546 328.0083 0001800 102.9184 257.2006 15.06396440196783
1 45541U 20025L   23313.77639815  .00022136  00000-0  14998-2 0  9993
2 45541  53.0543 326.5189 0001783 104.2957 255.8230 15.06411861196837
1 45541U 20025L   23313.77639815  .00022136  00000-0  14998-2 0  9993
2 45541  53.0543 326.5189 0001783 104.2957 255.8230 15.06411861196253
1 45541U 20025L   23314.30716511  .00018059  00000-0  12272-2 0  9994
2 45541  53.0545 324.1371 0001731 102.2495 257.8688 15.06428221196910
1 45541U 20025L   23314.30716511  .00018059  00000-0  12272-2 0  9994
2 45541  53.0545 324.1371 0001731 102.2495 257.8688 15.06428221196336
1 45541U 20025L   23315.16967360  .00001978  00000-0  15162-3 0  9993
2 45541  53.0547 320.2643 0001619 100.5479 259.5692 15.06403863196468
1 45541U 20025L   23315.30236771  .00000486  00000-0  51525-4 0  9991
2 45541  53.0550 319.6684 0001766 107.4034 252.7148 15.06399744197065
1 45541U 20025L   23316.29756728  .00000759  00000-0  69831-4 0  9991
2 45541  53.0541 315.2016 0001565  96.8465 263.2702 15.06406793197215
1 45541U 20025L   23316.29756728  .00000759  00000-0  69831-4 0  9991
2 45541  53.0541 315.2016 0001565  96.8465 263.2702 15.06406793196630
1 45541U 20025L   23316.69565037 -.00000356  00000-0 -50079-5 0  9996
2 45541  53.0536 313.4136 0001576  90.9239 269.1931 15.06401467197276
1 45541U 20025L   23317.16008558  .00000640  00000-0  61889-4 0  9993
2 45541  53.0549 311.3315 0001557  95.2232 264.8935 15.06390281196766
1 45541U 20025L   23317.42547305 -.00000049  00000-0  15628-4 0  9994
2 45541  53.0555 310.1390 0001818 100.3546 259.7648 15.06397418197381
1 45541U 20025L   23317.69086124  .00001095  00000-0  92433-4 0  9990
2 45541  53.0557 308.9478 0001628  95.1644 264.9531 15.06395811197423
1 45541U 20025L   23318.15528141  .00001401  00000-0  11293-3 0  9997
2 45541  53.0553 306.8622 0001558  95.0783 265.0384 15.06406056196917
1 45541U 20025L   23318.35432041  .00001394  00000-0  11241-3 0  9996
2 45541  53.0549 305.9683 0001526  92.8739 267.2425 15.06406867197528
1 45541U 20025L   23319.15049515  .00001139  00000-0  95374-4 0  9992
2 45541  53.0545 302.3934 0001420  87.5273 272.5879 15.06389758197061
1 45541U 20025L   23319.21684078  .00000626  00000-0  60899-4 0  9992
2 45541  53.0561 302.0948 0001571  87.6326 272.4843 15.06393941197652
1 45541U 20025L   23319.94666415 -.00001771  00000-0 -10003-3 0  9992
2 45541  53.0565 298.8198 0001583  81.4695 278.6473 15.06386379197765
1 45541U 20025L   23320.21202825  .00000973  00000-0  84218-4 0  9996
2 45541  53.0565 297.6274 0001705 109.3657 250.7516 15.06412473197800
1 45541U 20025L   23320.21202825  .00000973  00000-0  84218-4 0  9996
2 45541  53.0565 297.6274 0001705 109.3657 250.7516 15.06412473197226
1 45541U 20025L   23320.67646252  .00000324  00000-0  40650-4 0  9994
2 45541  53.0565 295.5428 0001776  80.8320 279.2870 15.06402968197296
1 45541U 20025L   23320.94184943  .00001521  00000-0  12097-3 0  9991
2 45541  53.0568 294.3503 0001678  90.1325 269.9856 15.06399745197917
1 45541U 20025L   23321.33992298  .00001496  00000-0  11930-3 0  9991
2 45541  53.0562 292.5640 0001594  95.0615 265.0556 15.06408834197976
1 45541U 20025L   23321.33992298  .00001496  00000-0  11930-3 0  9991
2 45541  53.0562 292.5640 0001594  95.0615 265.0556 15.06408834197392
1 45541U 20025L   23321.93705242 -.00000337  00000-0 -36926-5 0  9997
2 45541  53.0532 289.8839 0001779  92.8415 267.2777 15.06399373198067
1 45541U 20025L   23322.20244304 -.00001026  00000-0 -49973-4 0  9996
2 45541  53.0538 288.6923 0001362  89.5726 270.5419 15.06395348198103
1 45541U 20025L   23322.20244304 -.00001026  00000-0 -49973-4 0  9996
2 45541  53.0538 288.6923 0001362  89.5726 270.5419 15.06395348197528
1 45541U 20025L   23322.93226246 -.00001665  00000-0 -92914-4 0  9993
2 45541  53.0549 285.4161 0001674  90.1442 269.9738 15.06395299198216
1 45541U 20025L   23323.59572473 -.00000830  00000-0 -36807-4 0  9994
2 45541  53.0552 282.4377 0001389  93.0300 267.0848 15.06403155198317
1 45541U 20025L   23323.59572473 -.00000830  00000-0 -36807-4 0  9994
2 45541  53.0552 282.4377 0001389  93.0300 267.0848 15.06403155197732
1 45541U 20025L   23323.92745939  .00001664  00000-0  13059-3 0  9997
2 45541  53.0545 280.9479 0001319  88.4167 271.6973 15.06396142198369
1 45541U 20025L   23324.59092638  .00001519  00000-0  12081-3 0  9995
2 45541  53.0550 277.9683 0001328  84.1311 275.9830 15.06401186198467
1 45541U 20025L   23325.12171146  .00000002  00000-0  19024-4 0  9998
2 45541  53.0552 275.5863 0001460  88.3209 271.7947 15.06391741197964
1 45541U 20025L   23325.25440293  .00000065  00000-0  23226-4 0  9992
2 45541  53.0553 274.9905 0001361  84.6640 275.4504 15.06395868198564
1 45541U 20025L   23325.85151260  .00001311  00000-0  10689-3 0  9994
2 45541  53.0559 272.3112 0001543  86.2493 273.8672 15.06410927198650
1 45541U 20025L   23326.11689081  .00002230  00000-0  16845-3 0  9992
2 45541  53.0554 271.1190 0001649  82.6929 277.4247 15.06420570198113
1 45541U 20025L   23326.24957908  .00003029  00000-0  22200-3 0  9991
2 45541  53.0557 270.5229 0001676  82.9983 277.1196 15.06425837198712
1 45541U 20025L   23327.11210622 -.00000131  00000-0  10129-4 0  9993
2 45541  53.0537 266.6541 0001584  94.3981 265.7189 15.06398640198846
1 45541U 20025L   23327.11210622 -.00000131  00000-0  10129-4 0  9993
2 45541  53.0537 266.6541 0001584  94.3981 265.7189 15.06398640198262
1 45541U 20025L   23328.10729386  .00014539  00000-0  99216-3 0  9994
2 45541  53.0541 262.1836 0001651 113.2722 246.8441 15.06429792198998
1 45541U 20025L   23328.10729386  .00014539  00000-0  99216-3 0  9994
2 45541  53.0541 262.1836 0001651 113.2722 246.8441 15.06429792198415
1 45541U 20025L   23328.83711513  .00001656  00000-0  13004-3 0  9994
2 45541  53.0547 258.9080 0001825 110.0041 250.1145 15.06400713199105
1 45541U 20025L   23328.83711513  .00001656  00000-0  13004-3 0  9994
2 45541  53.0547 258.9080 0001825 110.0041 250.1145 15.06400713198520
